CTC1_L_00001016-03
1 14497U 24071CW  26070.40831019  .00000000  00000+0  00000-0 0  9999
2 14497  40.0000 180.0000 0000000   0.0000   0.0000 15.90815360    19
CTC1_L_00001016-04
1 14498U 24102QW  26070.40831019  .00000000  00000+0  00000-0 0  9995
2 14498  40.0000 180.0000 0000000   0.0000  90.0000 15.90815360    19
CTC1_L_00001017-01
1 14499U 26345MY  26070.40831019  .00000000  00000+0  00000-0 0  9997
2 14499  40.0000 192.0000 0000000   0.0000 192.0000 15.90815360    16
CTC1_L_00001017-02
1 14500U 22893YS  26070.40831019  .00000000  00000+0  00000-0 0  9994
2 14500  40.0000 192.0000 0000000   0.0000 282.0000 15.90815360    19
CTC1_L_00001017-03
1 14501U 22126NJ  26070.40831019  .00000000  00000+0  00000-0 0  9994
2 14501  40.0000 192.0000 0000000   0.0000  12.0000 15.90815360    11
CTC1_L_00001017-04
1 14502U 26890RB  26070.40831019  .00000000  00000+0  00000-0 0  9997
2 14502  40.0000 192.0000 0000000   0.0000 102.0000 15.90815360    12
CTC1_L_00001018-01
1 14503U 26047JZ  26070.40831019  .00000000  00000+0  00000-0 0  9992
2 14503  40.0000 204.0000 0000000   0.0000 204.0000 15.90815360    10
CTC1_L_00001018-02
1 14504U 24329OZ  26070.40831019  .00000000  00000+0  00000-0 0  9994
2 14504  40.0000 204.0000 0000000   0.0000 294.0000 15.90815360    10
CTC1_L_00001018-03
1 14505U 26110NI  26070.40831019  .00000000  00000+0  00000-0 0  9995
2 14505  40.0000 204.0000 0000000   0.0000  24.0000 15.90815360    12
CTC1_L_00001018-04
1 14506U 25068KP  26070.40831019  .00000000  00000+0  00000-0 0  9997
2 14506  40.0000 204.0000 0000000   0.0000 114.0000 15.90815360    13
CTC1_L_00001019-01
1 14507U 24364RK  26070.40831019  .00000000  00000+0  00000-0 0  9996
2 14507  40.0000 216.0000 0000000   0.0000 216.0000 15.90815360    10
CTC1_L_00001019-02
1 14508U 25843HJ  26070.40831019  .00000000  00000+0  00000-0 0  9990
2 14508  40.0000 216.0000 0000000   0.0000 306.0000 15.90815360    11
CTC1_L_00001019-03
1 14509U 25068EH  26070.40831019  .00000000  00000+0  00000-0 0  9990
2 14509  40.0000 216.0000 0000000   0.0000  36.0000 15.90815360    12
CTC1_L_00001019-04
1 14510U 24774J   26070.40831019  .00000000  00000+0  00000-0 0  9995
2 14510  40.0000 216.0000 0000000   0.0000 126.0000 15.90815360    14
CTC1_L_00001020-01
1 14511U 25242OW  26070.40831019  .00000000  00000+0  00000-0 0  9997
2 14511  40.0000 228.0000 0000000   0.0000 228.0000 15.90815360    11
CTC1_L_00001020-02
1 14512U 24545DH  26070.40831019  .00000000  00000+0  00000-0 0  9993
2 14512  40.0000 228.0000 0000000   0.0000 318.0000 15.90815360    12
CTC1_L_00001020-03
1 14513U 24828YD  26070.40831019  .00000000  00000+0  00000-0 0  9998
2 14513  40.0000 228.0000 0000000   0.0000  48.0000 15.90815360    13
CTC1_L_00001020-04
1 14514U 26905BV  26070.40831019  .00000000  00000+0  00000-0 0  9997
2 14514  40.0000 228.0000 0000000   0.0000 138.0000 15.90815360    14
CTC1_L_00001021-01
1 14515U 23471VZ  26070.40831019  .00000000  00000+0  00000-0 0  9993
2 14515  40.0000 240.0000 0000000   0.0000 240.0000 15.90815360    13
CTC1_L_00001021-02
1 14516U 22002WJ  26070.40831019  .00000000  00000+0  00000-0 0  9993
2 14516  40.0000 240.0000 0000000   0.0000 330.0000 15.90815360    14
CTC1_L_00001021-03
1 14517U 22164PD  26070.40831019  .00000000  00000+0  00000-0 0  9993
2 14517  40.0000 240.0000 0000000   0.0000  60.0000 15.90815360    15
CTC1_L_00001021-04
1 14518U 24342TX  26070.40831019  .00000000  00000+0  00000-0 0  9994
2 14518  40.0000 240.0000 0000000   0.0000 150.0000 15.90815360    16
CTC1_L_00001022-01
1 14519U 23668XF  26070.40831019  .00000000  00000+0  00000-0 0  9995
2 14519  40.0000 252.0000 0000000   0.0000 252.0000 15.90815360    13
CTC1_L_00001022-02
1 14520U 22389AY  26070.40831019  .00000000  00000+0  00000-0 0  9996
2 14520  40.0000 252.0000 0000000   0.0000 342.0000 15.90815360    15
CTC1_L_00001022-03
1 14521U 23368FB  26070.40831019  .00000000  00000+0  00000-0 0  9995
2 14521  40.0000 252.0000 0000000   0.0000  72.0000 15.90815360    16
CTC1_L_00001022-04
1 14522U 26523XE  26070.40831019  .00000000  00000+0  00000-0 0  9992
2 14522  40.0000 252.0000 0000000   0.0000 162.0000 15.90815360    17
CTC1_L_00001023-01
1 14523U 22226DY  26070.40831019  .00000000  00000+0  00000-0 0  9999
2 14523  40.0000 264.0000 0000000   0.0000 264.0000 15.90815360    14
CTC1_L_00001023-02
1 14524U 23567SD  26070.40831019  .00000000  00000+0  00000-0 0  9999
2 14524  40.0000 264.0000 0000000   0.0000 354.0000 15.90815360    15
CTC1_L_00001023-03
1 14525U 23525ML  26070.40831019  .00000000  00000+0  00000-0 0  9994
2 14525  40.0000 264.0000 0000000   0.0000  84.0000 15.90815360    16
CTC1_L_00001023-04
1 14526U 25336TR  26070.40831019  .00000000  00000+0  00000-0 0  9997
2 14526  40.0000 264.0000 0000000   0.0000 174.0000 15.90815360    17
CTC1_L_00001024-01
1 14527U 25826SN  26070.40831019  .00000000  00000+0  00000-0 0  9992
2 14527  40.0000 276.0000 0000000   0.0000 276.0000 15.90815360    14
CTC1_L_00001024-02
1 14528U 23236SN  26070.40831019  .00000000  00000+0  00000-0 0  9996
2 14528  40.0000 276.0000 0000000   0.0000   6.0000 15.90815360    16
CTC1_L_00001024-03
1 14529U 23348WL  26070.40831019  .00000000  00000+0  00000-0 0  9991
2 14529  40.0000 276.0000 0000000   0.0000  96.0000 15.90815360    16
CTC1_L_00001024-04
1 14530U 25704DE  26070.40831019  .00000000  00000+0  00000-0 0  9991
2 14530  40.0000 276.0000 0000000   0.0000 186.0000 15.90815360    18
CTC1_L_00001025-01
1 14531U 24057PA  26070.40831019  .00000000  00000+0  00000-0 0  9992
2 14531  40.0000 288.0000 0000000   0.0000 288.0000 15.90815360    15
CTC1_L_00001025-02
1 14532U 23605TM  26070.40831019  .00000000  00000+0  00000-0 0  9991
2 14532  40.0000 288.0000 0000000   0.0000  18.0000 15.90815360    17
CTC1_L_00001025-03
1 14533U 24053WG  26070.40831019  .00000000  00000+0  00000-0 0  9990
2 14533  40.0000 288.0000 0000000   0.0000 108.0000 15.90815360    18
CTC1_L_00001025-04
1 14534U 26905BH  26070.40831019  .00000000  00000+0  00000-0 0  9999
2 14534  40.0000 288.0000 0000000   0.0000 198.0000 15.90815360    18
CTC1_L_00001026-01
1 14535U 26256OY  26070.40831019  .00000000  00000+0  00000-0 0  9999
2 14535  40.0000 300.0000 0000000   0.0000 300.0000 15.90815360    19
CTC1_L_00001026-02
1 14536U 26625LV  26070.40831019  .00000000  00000+0  00000-0 0  9990
2 14536  40.0000 300.0000 0000000   0.0000  30.0000 15.90815360    10
CTC1_L_00001026-03
1 14537U 26203KQ  26070.40831019  .00000000  00000+0  00000-0 0  9993
2 14537  40.0000 300.0000 0000000   0.0000 120.0000 15.90815360    11
CTC1_L_00001026-04
1 14538U 23863XN  26070.40831019  .00000000  00000+0  00000-0 0  9993
2 14538  40.0000 300.0000 0000000   0.0000 210.0000 15.90815360    12
CTC1_L_00001027-01
1 14539U 25465HL  26070.40831019  .00000000  00000+0  00000-0 0  9994
2 14539  40.0000 312.0000 0000000   0.0000 312.0000 15.90815360    19
CTC1_L_00001027-02
1 14540U 25141MX  26070.40831019  .00000000  00000+0  00000-0 0  9997
2 14540  40.0000 312.0000 0000000   0.0000  42.0000 15.90815360    11
CTC1_L_00001027-03
1 14541U 23058AX  26070.40831019  .00000000  00000+0  00000-0 0  9993
2 14541  40.0000 312.0000 0000000   0.0000 132.0000 15.90815360    12
CTC1_L_00001027-04
1 14542U 26924LD  26070.40831019  .00000000  00000+0  00000-0 0  9999
2 14542  40.0000 312.0000 0000000   0.0000 222.0000 15.90815360    13
CTC1_L_00001028-01
1 14543U 23562LD  26070.40831019  .00000000  00000+0  00000-0 0  9995
2 14543  40.0000 324.0000 0000000   0.0000 324.0000 15.90815360    10
CTC1_L_00001028-02
1 14544U 26467LU  26070.40831019  .00000000  00000+0  00000-0 0  9993
2 14544  40.0000 324.0000 0000000   0.0000  54.0000 15.90815360    11
CTC1_L_00001028-03
1 14545U 25429IW  26070.40831019  .00000000  00000+0  00000-0 0  9991
2 14545  40.0000 324.0000 0000000   0.0000 144.0000 15.90815360    12
CTC1_L_00001028-04
1 14546U 26235BB  26070.40831019  .00000000  00000+0  00000-0 0  9998
2 14546  40.0000 324.0000 0000000   0.0000 234.0000 15.90815360    13
CTC1_L_00001029-01
1 14547U 25642SY  26070.40831019  .00000000  00000+0  00000-0 0  9990
2 14547  40.0000 336.0000 0000000   0.0000 336.0000 15.90815360    10
CTC1_L_00001029-02
1 14548U 23681ZE  26070.40831019  .00000000  00000+0  00000-0 0  9992
2 14548  40.0000 336.0000 0000000   0.0000  66.0000 15.90815360    11
CTC1_L_00001029-03
1 14549U 26669UL  26070.40831019  .00000000  00000+0  00000-0 0  9992
2 14549  40.0000 336.0000 0000000   0.0000 156.0000 15.90815360    12
CTC1_L_00001029-04
1 14550U 22020Z   26070.40831019  .00000000  00000+0  00000-0 0  9991
2 14550  40.0000 336.0000 0000000   0.0000 246.0000 15.90815360    14
CTC1_L_00001030-01
1 14551U 22855WQ  26070.40831019  .00000000  00000+0  00000-0 0  9998
2 14551  40.0000 348.0000 0000000   0.0000 348.0000 15.90815360    11
CTC1_L_00001030-02
1 14552U 24517ZA  26070.40831019  .00000000  00000+0  00000-0 0  9996
2 14552  40.0000 348.0000 0000000   0.0000  78.0000 15.90815360    12
CTC1_L_00001030-03
1 14553U 25378FH  26070.40831019  .00000000  00000+0  00000-0 0  9993
2 14553  40.0000 348.0000 0000000   0.0000 168.0000 15.90815360    13
CTC1_L_00001030-04
1 14554U 22752JY  26070.40831019  .00000000  00000+0  00000-0 0  9997
2 14554  40.0000 348.0000 0000000   0.0000 258.0000 15.90815360    14
